STARLINK-1031           
1 44736U 19074Z   26080.25003472  .00370978  66966-4  85014-3 0  9996
2 44736  53.0360  60.8374 0004605  59.7428   2.3479 15.96825266  5955
STARLINK-1053           
1 44758U 19074AX  26080.25003472  .00670933  21438-3  12725-2 0  9996
2 44758  53.0254  24.0217 0005792 124.9222 162.2051 16.00141225  6005
STARLINK-1298           
1 45413U 20019BF  26080.21829271  .01056029  66116-3  11795-2 0  9998
2 45413  53.0320 354.1277 0001589 119.5793 240.5399 16.08958393332966
STARLINK-1398           
1 45699U 20035AU  26079.94055373  .00738353  29100-3  92322-3 0  9998
2 45699  53.0296 240.9482 0008307 285.5378  74.4737 16.07038370322324
STARLINK-1484           
1 45756U 20038AC  26080.59644523  .05168605  12174-4  74729-3 0  9996
2 45756  52.9887 353.6949 0005296 247.2428 112.8056 16.33898837320620
STARLINK-1587           
1 46157U 20057AS  26080.56177509  .03934582  11943-4  14996-2 0  9990
2 46157  53.0203 154.2895 0008504 349.0651  11.0201 16.23374242309389
ION-MK01                
1 46274U 20061C   26080.18702602  .00289145  33539-4  85573-3 0  9991
2 46274  97.1927 159.7668 0003160 222.9115 137.1913 15.92547264309477
STARLINK-1752           
1 46338U 20062P   26079.97296079  .00794824  32106-3  12357-2 0  9996
2 46338  53.0325 268.8979 0008430 285.7019  74.3081 16.03501542306807
STARLINK-1765           
1 46344U 20062V   26080.25575840  .01109728  59557-3  25875-2 0  9994
2 46344  53.0340 242.4980 0007596 284.3882  75.6303 15.96502253307203
STARLINK-1726           
1 46362U 20062AP  26080.06932795  .01655956  23928-2  11802-2 0  9995
2 46362  53.0296 200.9793 0009885 314.4080  45.6146 16.15864376307775
STARLINK-1648           
1 46533U 20070B   26080.20081881  .00878239  38632-3  15265-2 0  9997
2 46533  53.0393  66.7583 0003721  39.3422 320.7877 16.01692225302055
STARLINK-1814           
1 46712U 20073AU  26080.53644296  .01325602  11520-2  13972-2 0  9991
2 46712  53.0296 123.4057 0010586  26.5252 333.6322 16.09836832299829
STARLINK-1820           
1 46717U 20073AZ  26080.16667824  .00332340  54728-4  83024-3 0  9998
2 46717  53.0355 103.8160 0006796  29.5711 287.6012 15.95236085  6039
STARLINK-1843           
1 47133U 20088M   26080.25003472  .00635116  17724-3  16590-2 0  9994
2 47133  53.0410 184.2791 0009343 358.8032  29.0118 15.94306606  5942
STARLINK-1955           
1 47556U 21009J   26080.50511348  .01207232  11874-4  50376-3 0  9998
2 47556  53.0247 263.0634 0005413 224.0785 135.9823 16.22361526283496
STARLINK-1971           
1 47572U 21009AA  26080.25003472  .00700648  22619-3  15276-2 0  9997
2 47572  53.0347 262.8795 0005984 304.2823 134.2698 15.97673653  5994
STARLINK-2022           
1 47643U 21012Z   26080.01102669  .01254243  10276-2  12459-2 0  9993
2 47643  53.0030 278.8545 0008132 272.9073  87.1030 16.10757853283117
STARLINK-2488           
1 48145U 21027BF  26080.14338279  .01233259  93445-3  14534-2 0  9999
2 48145  53.0337  48.8450 0004734 150.8696 209.2601 16.08165321275149
STARLINK-3050           
1 49180U 21082BC  26080.26703615  .02049387  41758-5  12066-2 0  9991
2 49180  69.9878 227.9200 0005800 280.4830  79.5736 16.18403649249814
STARLINK-3149           
1 49423U 21104R   26080.12888649  .00790859  32549-3  11285-2 0  9995
2 49423  53.2127 161.2860 0001371  52.5804 307.5355 16.04997842240581
STARLINK-3258           
1 50206U 21125BC  26080.59255186  .02189159  11917-4  80093-3 0  9992
2 50206  53.2047 164.9471 0001747 339.9970  20.1003 16.23985537236744
JILIN-1 GAOFEN 03D16    
1 51834U 22019L   26079.90644642  .00448625  82329-4  11927-2 0  9993
2 51834  97.3654 175.4385 0003059 229.9352 130.1655 15.94591497226352
